KUIPER-00027            
1 63740U 25088S   25360.86316282  .00003991  00000+0  55238-3 0  9992
2 63740  51.9014  57.6155 0003480 286.4135  73.6445 14.79919899 36830
KUIPER-00028            
1 63741U 25088T   25360.40767461  .00002473  00000+0  35498-3 0  9992
2 63741  51.9009  57.6047 0003870 299.3354  60.7222 14.79733318 37206
KUIPER-00029            
1 63742U 25088U   25361.13142630  .00087353  00000+0  12121-1 0  9995
2 63742  51.9044  52.4102 0007564 242.7361 117.2830 14.77095500 36861
KUIPER-00030            
1 63743U 25088V   25361.18457127  .00003442  00000+0  47968-3 0  9997
2 63743  51.9017  71.1564 0014609 188.6449 171.4263 14.79951941 36892
KUIPER-00031            
1 63744U 25088W   25361.19911553  .00003441  00000+0  48005-3 0  9999
2 63744  51.9006  57.1631 0002967 231.3210 128.7487 14.79945667 36808
KUIPER-00032            
1 63745U 25088X   25361.23185240  .00015089  00000+0  46158-3 0  9999
2 63745  51.8736  13.6423 0003097 228.9908 131.0809 15.34040493 38414
KUIPER-00033            
1 63746U 25088Y   25361.23428501 -.00000345  00000+0 -16150-4 0  9991
2 63746  51.9009  86.9939 0002506 301.0377  59.0339 14.79945441 36871
KUIPER-00034            
1 63747U 25088Z   25361.13969873  .00006138  00000+0  83299-3 0  9994
2 63747  51.9031  49.9297 0000802 268.1348  91.9523 14.79957535 37060
